{"fetched_at":"2026-03-29T16:36:15Z","count":15609,"tles":[{"name":"STARLINK-4763","line1":"1 53805U 22111AJ  26087.69252598 -.00000823  00000+0 -33617-4 0  9995","line2":"2 53805  53.2150 163.9423 0001372  80.5733 279.5414 15.08837862196899","category":"Starlink"}]}